KINEIS-4B               
1 63304U 25056E   26086.32185567 -.00000402  00000+0 -55872-4 0  9991
2 63304  97.9812 212.4468 0004133 147.7098 212.4363 14.72335248 55075
